{
    "links": {
        "self": "http://www.neowsapp.com/rest/v1/neo/3873145?api_key=iIulBulltgU6a56xZRHN4H3l9WmuAYTsLGpBGhQ2"
    },
    "id": "3873145",
    "neo_reference_id": "3873145",
    "name": "(2019 SA9)",
    "designation": "2019 SA9",
    "nasa_jpl_url": "http://ssd.jpl.nasa.gov/sbdb.cgi?sstr=3873145",
    "absolute_magnitude_h": 26.8,
    "estimated_diameter": {
        "kilometers": {
            "estimated_diameter_min": 0.0116025908,
            "estimated_diameter_max": 0.0259441818
        },
        "meters": {
            "estimated_diameter_min": 11.6025908209,
            "estimated_diameter_max": 25.9441817907
        },
        "miles": {
            "estimated_diameter_min": 0.0072095135,
            "estimated_diameter_max": 0.0161209622
        },
        "feet": {
            "estimated_diameter_min": 38.066244069,
            "estimated_diameter_max": 85.1187093863
        }
    },
    "is_potentially_hazardous_asteroid": false,
    "close_approach_data": [
        {
            "close_approach_date": "2019-09-25",
            "close_approach_date_full": "2019-Sep-25 04:00",
            "epoch_date_close_approach": 1569384000000,
            "relative_velocity": {
                "kilometers_per_second": "12.4008378517",
                "kilometers_per_hour": "44643.0162660541",
                "miles_per_hour": "27739.4341904268"
            },
            "miss_distance": {
                "astronomical": "0.0234797537",
                "lunar": "9.1336241893",
                "kilometers": "3512521.141644619",
                "miles": "2182579.4298649822"
            },
            "orbiting_body": "Earth"
        }
    ],
    "orbital_data": {
        "orbit_id": "1",
        "orbit_determination_date": "2019-10-01 11:42:10",
        "first_observation_date": "2019-09-30",
        "last_observation_date": "2019-10-01",
        "data_arc_in_days": 1,
        "observations_used": 15,
        "orbit_uncertainty": "9",
        "minimum_orbit_intersection": ".0079896",
        "jupiter_tisserand_invariant": "3.292",
        "epoch_osculation": "2458756.5",
        "eccentricity": ".6069449445945626",
        "semi_major_axis": "2.337065045081046",
        "inclination": ".6823087868644708",
        "ascending_node_longitude": "235.6660572290524",
        "orbital_period": "1304.982316230781",
        "perihelion_distance": ".9185952307804418",
        "perihelion_argument": "83.59655281122589",
        "aphelion_distance": "3.755534859381651",
        "perihelion_time": "2458720.611593001415",
        "mean_anomaly": "9.900384364446653",
        "mean_motion": ".2758658071626585",
        "equinox": "J2000",
        "orbit_class": {
            "orbit_class_type": "APO",
            "orbit_class_description": "Near-Earth asteroid orbits which cross the Earth’s orbit similar to that of 1862 Apollo",
            "orbit_class_range": "a (semi-major axis) > 1.0 AU; q (perihelion) < 1.017 AU"
        }
    },
    "is_sentry_object": false
}